*******************************************************************************
Ephemeris / WWW_USER Mon Jul 15 19:18:11 2024 Pasadena, USA      / Horizons    
*******************************************************************************
Target body name: (2018 YU2)                      {source: JPL#5}
Center body name: Earth (399)                     {source: DE441}
Center-site name: Gemini South Obs., Cerro Pachon
*******************************************************************************
Start time      : A.D. 2018-Dec-04 23:42:00.0000 UT      
Stop  time      : A.D. 2018-Dec-05 09:24:00.0000 UT      
Step-size       : 1 minutes
*******************************************************************************
Target pole/equ : undefined
Target radii    : undefined                                                    
Center geodetic : 289.2634, -30.2406227, 2.71233  {E-lon(deg),Lat(deg),Alt(km)}
Center cylindric: 289.2634,5517.21435,-3194.81213 {E-lon(deg),Dxy(km),Dz(km)}
Center pole/equ : ITRF93                          {East-longitude positive}
Center radii    : 6378.137, 6378.137, 6356.752 km {Equator_a, b, pole_c}       
Target primary  : Sun
Vis. interferer : MOON (R_eq= 1737.400) km        {source: DE441}
Rel. light bend : Sun                             {source: DE441}
Rel. lght bnd GM: 1.3271E+11 km^3/s^2                                          
Small-body perts: Yes                             {source: SB441-N16}
Atmos refraction: NO (AIRLESS)
RA format       : HMS
Time format     : CAL 
Calendar mode   : Mixed Julian/Gregorian
RTS-only print  : NO       
EOP file        : eop.240715.p241008                                           
EOP coverage    : DATA-BASED 1962-JAN-20 TO 2024-JUL-15. PREDICTS-> 2024-OCT-07
Units conversion: 1 au= 149597870.700 km, c= 299792.458 km/s, 1 day= 86400.0 s 
Table cut-offs 1: Elevation (-90.0deg=NO ),Airmass (>38.000=NO), Daylight (YES)
Table cut-offs 2: Solar elongation (  0.0,180.0=NO ),Local Hour Angle( 0.0=NO )
Table cut-offs 3: RA/DEC angular rate (     0.0=NO )                           
*******************************************************************************
Initial IAU76/J2000 heliocentric ecliptic osculating elements (au, days, deg.):
  EPOCH=  2458477.5 ! 2018-Dec-25.00 (TDB)         Residual RMS= .22887        
   EC= .1533598773405833   QR= .920984914841031    TP= 2458549.1486254167      
   OM= 279.4515303175068   W=  253.4059234937716   IN= 2.850769624588425       
  Equivalent ICRF heliocentric cartesian coordinates (au, au/d):
   X=-6.842297687009524E-02  Y= 9.429126817220428E-01  Z= 4.143187104036840E-01
  VX=-1.695115058702848E-02 VY=-2.997207899955317E-03 VZ=-2.239432528215744E-03
Asteroid physical parameters (km, seconds, rotational period in hours):        
   GM= n.a.                RAD= n.a.               ROTPER= n.a.                
   H= 26.5                 G= .150                 B-V= n.a.                   
                           ALBEDO= n.a.            STYP= n.a.                  
*******************************************************************************
 Date__(UT)__HR:MN     R.A._________(ICRF)_________DEC
******************************************************
$$SOE
 2018-Dec-04 23:42 C   07 06 56.811292 +33 36 23.56695
 2018-Dec-04 23:43 C   07 06 56.880048 +33 36 23.47308
 2018-Dec-04 23:44 C   07 06 56.948707 +33 36 23.37941
 2018-Dec-04 23:45 C   07 06 57.017269 +33 36 23.28595
 2018-Dec-04 23:46 C   07 06 57.085735 +33 36 23.19269
 2018-Dec-04 23:47 C   07 06 57.154103 +33 36 23.09963
 2018-Dec-04 23:48 C   07 06 57.222375 +33 36 23.00675
 2018-Dec-04 23:49 C   07 06 57.290550 +33 36 22.91407
 2018-Dec-04 23:50 C   07 06 57.358627 +33 36 22.82158
 2018-Dec-04 23:51 C   07 06 57.426607 +33 36 22.72927
 2018-Dec-04 23:52 C   07 06 57.494489 +33 36 22.63714
 2018-Dec-04 23:53 C   07 06 57.562273 +33 36 22.54519
 2018-Dec-04 23:54 C   07 06 57.629960 +33 36 22.45341
 2018-Dec-04 23:55 C   07 06 57.697548 +33 36 22.36181
 2018-Dec-04 23:56 C   07 06 57.765039 +33 36 22.27038
 2018-Dec-04 23:57 C   07 06 57.832431 +33 36 22.17911
 2018-Dec-04 23:58 C   07 06 57.899725 +33 36 22.08801
 2018-Dec-04 23:59 C   07 06 57.966921 +33 36 21.99707
 2018-Dec-05 00:00 C   07 06 58.034018 +33 36 21.90629
 2018-Dec-05 00:01 N   07 06 58.101016 +33 36 21.81566
 2018-Dec-05 00:02 N   07 06 58.167915 +33 36 21.72519
 2018-Dec-05 00:03 N   07 06 58.234716 +33 36 21.63486
 2018-Dec-05 00:04 N   07 06 58.301417 +33 36 21.54468
 2018-Dec-05 00:05 N   07 06 58.368020 +33 36 21.45464
 2018-Dec-05 00:06 N   07 06 58.434523 +33 36 21.36475
 2018-Dec-05 00:07 N   07 06 58.500927 +33 36 21.27499
 2018-Dec-05 00:08 N   07 06 58.567231 +33 36 21.18536
 2018-Dec-05 00:09 N   07 06 58.633436 +33 36 21.09587
 2018-Dec-05 00:10 N   07 06 58.699541 +33 36 21.00650
 2018-Dec-05 00:11 N   07 06 58.765547 +33 36 20.91726
 2018-Dec-05 00:12 N   07 06 58.831453 +33 36 20.82814
 2018-Dec-05 00:13 N   07 06 58.897258 +33 36 20.73914
 2018-Dec-05 00:14 N   07 06 58.962964 +33 36 20.65026
 2018-Dec-05 00:15 N   07 06 59.028570 +33 36 20.56149
 2018-Dec-05 00:16 N   07 06 59.094075 +33 36 20.47283
 2018-Dec-05 00:17 N   07 06 59.159481 +33 36 20.38427
 2018-Dec-05 00:18 N   07 06 59.224786 +33 36 20.29583
 2018-Dec-05 00:19 N   07 06 59.289990 +33 36 20.20748
 2018-Dec-05 00:20 N   07 06 59.355094 +33 36 20.11923
 2018-Dec-05 00:21 N   07 06 59.420097 +33 36 20.03107
 2018-Dec-05 00:22 N   07 06 59.485000 +33 36 19.94301
 2018-Dec-05 00:23 N   07 06 59.549802 +33 36 19.85504
 2018-Dec-05 00:24 N   07 06 59.614503 +33 36 19.76715
 2018-Dec-05 00:25 N   07 06 59.679104 +33 36 19.67934
 2018-Dec-05 00:26 N   07 06 59.743603 +33 36 19.59162
 2018-Dec-05 00:27 N   07 06 59.808001 +33 36 19.50397
 2018-Dec-05 00:28 N   07 06 59.872299 +33 36 19.41640
 2018-Dec-05 00:29 N   07 06 59.936495 +33 36 19.32889
 2018-Dec-05 00:30 N   07 07 00.000590 +33 36 19.24146
 2018-Dec-05 00:31 N   07 07 00.064584 +33 36 19.15409
 2018-Dec-05 00:32 N   07 07 00.128476 +33 36 19.06678
 2018-Dec-05 00:33 N   07 07 00.192267 +33 36 18.97953
 2018-Dec-05 00:34 A   07 07 00.255957 +33 36 18.89233
 2018-Dec-05 00:35 A   07 07 00.319545 +33 36 18.80519
 2018-Dec-05 00:36 A   07 07 00.383032 +33 36 18.71809
 2018-Dec-05 00:37 A   07 07 00.446417 +33 36 18.63105
 2018-Dec-05 00:38 A   07 07 00.509701 +33 36 18.54404
 2018-Dec-05 00:39 A   07 07 00.572883 +33 36 18.45708
 2018-Dec-05 00:40 A   07 07 00.635963 +33 36 18.37015
 2018-Dec-05 00:41 A   07 07 00.698942 +33 36 18.28326
 2018-Dec-05 00:42 A   07 07 00.761818 +33 36 18.19640
 2018-Dec-05 00:43 A   07 07 00.824593 +33 36 18.10957
 2018-Dec-05 00:44 A   07 07 00.887267 +33 36 18.02276
 2018-Dec-05 00:45 A   07 07 00.949838 +33 36 17.93598
 2018-Dec-05 00:46 A   07 07 01.012307 +33 36 17.84921
 2018-Dec-05 00:47 A   07 07 01.074675 +33 36 17.76246
 2018-Dec-05 00:48 A   07 07 01.136941 +33 36 17.67572
 2018-Dec-05 00:49 A   07 07 01.199104 +33 36 17.58899
 2018-Dec-05 00:50 A   07 07 01.261166 +33 36 17.50227
 2018-Dec-05 00:51 A   07 07 01.323126 +33 36 17.41555
 2018-Dec-05 00:52 A   07 07 01.384983 +33 36 17.32883
 2018-Dec-05 00:53 A   07 07 01.446739 +33 36 17.24211
 2018-Dec-05 00:54 A   07 07 01.508393 +33 36 17.15538
 2018-Dec-05 00:55 A   07 07 01.569944 +33 36 17.06865
 2018-Dec-05 00:56 A   07 07 01.631394 +33 36 16.98190
 2018-Dec-05 00:57 A   07 07 01.692741 +33 36 16.89514
 2018-Dec-05 00:58 A   07 07 01.753987 +33 36 16.80836
 2018-Dec-05 00:59 A   07 07 01.815130 +33 36 16.72156
 2018-Dec-05 01:00 A   07 07 01.876171 +33 36 16.63473
 2018-Dec-05 01:01 A   07 07 01.937110 +33 36 16.54788
 2018-Dec-05 01:02 A   07 07 01.997947 +33 36 16.46100
 2018-Dec-05 01:03 A   07 07 02.058682 +33 36 16.37408
 2018-Dec-05 01:04 A   07 07 02.119315 +33 36 16.28713
 2018-Dec-05 01:05 A   07 07 02.179846 +33 36 16.20013
 2018-Dec-05 01:06 A   07 07 02.240275 +33 36 16.11310
 2018-Dec-05 01:07 A   07 07 02.300602 +33 36 16.02602
 2018-Dec-05 01:08 A   07 07 02.360827 +33 36 15.93889
 2018-Dec-05 01:09     07 07 02.420949 +33 36 15.85171
 2018-Dec-05 01:10     07 07 02.480970 +33 36 15.76447
 2018-Dec-05 01:11     07 07 02.540889 +33 36 15.67718
 2018-Dec-05 01:12     07 07 02.600706 +33 36 15.58983
 2018-Dec-05 01:13     07 07 02.660421 +33 36 15.50241
 2018-Dec-05 01:14     07 07 02.720034 +33 36 15.41492
 2018-Dec-05 01:15     07 07 02.779545 +33 36 15.32737
 2018-Dec-05 01:16     07 07 02.838955 +33 36 15.23974
 2018-Dec-05 01:17     07 07 02.898262 +33 36 15.15203
 2018-Dec-05 01:18     07 07 02.957468 +33 36 15.06425
 2018-Dec-05 01:19     07 07 03.016572 +33 36 14.97638
 2018-Dec-05 01:20     07 07 03.075574 +33 36 14.88843
 2018-Dec-05 01:21     07 07 03.134475 +33 36 14.80039
 2018-Dec-05 01:22     07 07 03.193274 +33 36 14.71225
 2018-Dec-05 01:23     07 07 03.251971 +33 36 14.62403
 2018-Dec-05 01:24     07 07 03.310567 +33 36 14.53570
 2018-Dec-05 01:25     07 07 03.369062 +33 36 14.44727
 2018-Dec-05 01:26     07 07 03.427455 +33 36 14.35875
 2018-Dec-05 01:27     07 07 03.485747 +33 36 14.27011
 2018-Dec-05 01:28     07 07 03.543937 +33 36 14.18136
 2018-Dec-05 01:29     07 07 03.602026 +33 36 14.09250
 2018-Dec-05 01:30     07 07 03.660014 +33 36 14.00353
 2018-Dec-05 01:31     07 07 03.717900 +33 36 13.91443
 2018-Dec-05 01:32     07 07 03.775686 +33 36 13.82521
 2018-Dec-05 01:33     07 07 03.833370 +33 36 13.73587
 2018-Dec-05 01:34     07 07 03.890954 +33 36 13.64640
 2018-Dec-05 01:35     07 07 03.948436 +33 36 13.55680
 2018-Dec-05 01:36     07 07 04.005818 +33 36 13.46706
 2018-Dec-05 01:37     07 07 04.063099 +33 36 13.37719
 2018-Dec-05 01:38     07 07 04.120280 +33 36 13.28718
 2018-Dec-05 01:39     07 07 04.177359 +33 36 13.19702
 2018-Dec-05 01:40     07 07 04.234338 +33 36 13.10672
 2018-Dec-05 01:41     07 07 04.291217 +33 36 13.01626
 2018-Dec-05 01:42     07 07 04.347995 +33 36 12.92566
 2018-Dec-05 01:43     07 07 04.404673 +33 36 12.83490
 2018-Dec-05 01:44     07 07 04.461251 +33 36 12.74398
